COSMOS 2419 (714)       
1 28915U 05050A   16335.01369598 -.00000030  00000-0  00000+0 0  9997
2 28915  65.3992  72.5670 0014259 354.1025 283.4869  2.13107262 85084
COSMOS 2425 (716)       
1 29670U 06062A   16335.36263747 -.00000030  00000-0  10000-3 0  9992
2 29670  65.5588 311.5633 0021826 338.1450 262.6661  2.13104907 77299
COSMOS 2426 (717)       
1 29671U 06062B   16334.46890736 -.00000035  00000-0  10000-3 0  9992
2 29671  65.5766 311.6786 0017113 174.6924 320.1999  2.13103023 77282
COSMOS 2424 (715)       
1 29672U 06062C   16335.24458094 -.00000031  00000-0  10000-3 0  9993
2 29672  65.5607 311.5775 0016419 173.8523  12.0213  2.13102116 77297
COSMOS 2433 (720)       
1 32275U 07052A   16335.14356065 -.00000029  00000-0  10000-3 0  9997
2 32275  65.4151  72.3385 0002453 229.6171  35.2746  2.13104888 70800
COSMOS 2432 (719)       
1 32276U 07052B   16335.03640883 -.00000030  00000-0  10000-3 0  9992
2 32276  65.4276  72.4111 0010072 336.3984 159.6911  2.13104029 70803
COSMOS 2434 (721)       
1 32393U 07065A   16334.60983286 -.00000035  00000-0  00000+0 0  9995
2 32393  65.1762 310.8331 0001997 153.3500 312.9111  2.13102802 69508
COSMOS 2436 (723)       
1 32395U 07065C   16333.54160755 -.00000040  00000-0  10000-3 0  9998
2 32395  65.1978 310.9080 0031456  31.0415  59.8875  2.12349652 69410
COSMOS 2443 (725)       
1 33379U 08046B   16334.90364241 -.00000031  00000-0  00000+0 0  9993
2 33379  65.3444  71.7483 0017088 182.9527 160.7461  2.13100661 63667
COSMOS 2456 (730)       
1 36111U 09070A   16335.08731420  .00000085  00000-0  00000+0 0  9993
2 36111  64.1783 190.3868 0003606 336.9508 305.9314  2.13102957 54179
COSMOS 2457 (733)       
1 36112U 09070B   16335.43532912  .00000084  00000-0  00000+0 0  9997
2 36112  64.1605 190.2981 0006973 152.2969 167.0624  2.13101685 54187
COSMOS 2458 (734)       
1 36113U 09070C   16335.36725546  .00000084  00000-0  10000-3 0  9992
2 36113  64.1655 190.3071 0002424  51.9080 262.8930  2.13101898 54180
COSMOS 2459 (731)       
1 36400U 10007A   16335.15222586 -.00000029  00000-0  10000-3 0  9996
2 36400  65.3238  71.4679 0026376 353.6540 141.7444  2.13102141 52531
COSMOS 2461 (735)       
1 36401U 10007B   16335.48657645 -.00000027  00000-0  10000-3 0  9999
2 36401  65.3178  71.4371 0006635  82.6293 219.8717  2.13102124 52535
COSMOS 2460 (732)       
1 36402U 10007C   16334.62233586 -.00000034  00000-0  10000-3 0  9997
2 36402  65.3068  71.4411 0001377 154.2349 246.8487  2.13101816 52525
COSMOS 2465 (737)       
1 37138U 10041B   16335.39584539 -.00000031  00000-0  00000+0 0  9996
2 37138  64.7748 310.8947 0035379 176.0526 216.5347  2.13103382 48616
COSMOS 2464 (736)       
1 37139U 10041C   16334.42469008 -.00000037  00000-0  00000+0 0  9999
2 37139  64.7833 310.9258 0022022   5.2430 186.6926  2.13102582 48594
COSMOS 2471 (701K)      
1 37372U 11009A   16334.81181696 -.00000033  00000-0  00000+0 0  9996
2 37372  65.3042  71.3829 0008142 226.6257  92.9677  2.13102812 44793
COSMOS 2474 (742)       
1 37829U 11055A   16334.57878780  .00000087  00000-0  00000+0 0  9992
2 37829  64.5025 190.8855 0006524 246.8564 226.5658  2.13101935 40161
COSMOS 2476 (744)       
1 37867U 11064A   16335.49819449  .00000084  00000-0  00000+0 0  9990
2 37867  64.4823 190.9320 0015700 242.9886 261.6518  2.13101973 39532
COSMOS 2477 (745)       
1 37868U 11064B   16335.10502104  .00000085  00000-0  00000+0 0  9997
2 37868  64.4904 190.9871 0013333 243.9438 138.3158  2.13102031 39488
COSMOS 2475 (743)       
1 37869U 11064C   16334.62261334  .00000086  00000-0  00000+0 0  9992
2 37869  64.4974 190.9924 0018744 274.3015  54.1527  2.13102160 39472
COSMOS 2485 (747)       
1 39155U 13019A   16335.42380567  .00000084  00000-0  00000+0 0  9991
2 39155  64.6523 190.9203 0016062 237.2837 255.3884  2.13102040 28000
COSMOS 2492 (754)       
1 39620U 14012A   16334.13515397 -.00000039  00000-0  10000-3 0  9996
2 39620  65.1964  71.4220 0013824 330.7744 286.9528  2.13103548 20925
COSMOS 2500 (755)       
1 40001U 14032A   16334.46322191 -.00000036  00000-0  00000+0 0  9999
2 40001  65.1364  71.4231 0007001 196.5799 176.2805  2.13102775 19157
COSMOS 2501 (702K)      
1 40315U 14075A   16335.08837406 -.00000034  00000-0  00000+0 0  9991
2 40315  64.5092 312.3137 0015928 215.8532  84.8758  2.13100098 15563
COSMOS 2514 (751)       
1 41330U 16008A   16334.62726663 -.00000035  00000-0  00000+0 0  9999
2 41330  64.9374  71.6124 0010007 208.6304 109.5483  2.13103385  6314
COSMOS 2516 (753)       
1 41554U 16032A   16335.09083777 -.00000034  00000-0  00000+0 0  9997
2 41554  64.7287 312.0243 0013834 231.0179 336.5472  2.13101606  3937
